{"type": "FeatureCollection", "features": [ {"type": "Feature", "properties": {"norad_id": 17070, "name": "POLAR BEAR", "group": "nnss", "lat": 35.74693795575943, "lon": -175.8176933050703, "alt_km": 979.8532882075751, "timestamp": "2025-12-09T09:46:47.913955+00:00", "meta": {"OBJECT_NAME": "POLAR BEAR", "OBJECT_ID": "1986-088A", "EPOCH": "2025-12-09T03:11:16.321920", "MEAN_MOTION": 13.75249676, "ECCENTRICITY": 0.0040751, "INCLINATION": 89.6177, "RA_OF_ASC_NODE": 183.918, "ARG_OF_PERICENTER": 129.7063, "MEAN_ANOMALY": 347.5564, "EPHEMERIS_TYPE": 0, "CLASSIFICATION_TYPE": "U", "NORAD_CAT_ID": 17070, "ELEMENT_SET_NO": 999, "REV_AT_EPOCH": 95929, "BSTAR": 0.00014111, "MEAN_MOTION_DOT": 1.48e-06, "MEAN_MOTION_DDOT": 0}, "tle": {"line1": "1 17070U 86088A   25343.13282780  .00000148  00000+0  14111-3 0  9996", "line2": "2 17070  89.6177 183.9180 0040751 129.7063 347.5564 13.75249676959298"}}, "geometry": {"type": "Point", "coordinates": [-175.8176933050703, 35.74693795575943]}}, {"type": "Feature", "properties": {"norad_id": 18361, "name": "OSCAR 27", "group": "nnss", "lat": -61.7477501729349, "lon": 79.84437303594262, "alt_km": 1065.068202895347, "timestamp": "2025-12-09T09:46:47.913978+00:00", "meta": {"OBJECT_NAME": "OSCAR 27", "OBJECT_ID": "1987-080A", "EPOCH": "2025-12-08T19:48:08.783424", "MEAN_MOTION": 13.44905625, "ECCENTRICITY": 0.01026386, "INCLINATION": 90.3742, "RA_OF_ASC_NODE": 79.1258, "ARG_OF_PERICENTER": 235.1417, "MEAN_ANOMALY": 124.0048, "EPHEMERIS_TYPE": 0, "CLASSIFICATION_TYPE": "U", "NORAD_CAT_ID": 18361, "ELEMENT_SET_NO": 999, "REV_AT_EPOCH": 87504, "BSTAR": 0.0003214454, "MEAN_MOTION_DOT": 2.02e-06, "MEAN_MOTION_DDOT": 0}, "tle": {"line1": "1 18361U 87080A   25342.82510166  .00000202  00000+0  32145-3 0  9998", "line2": "2 18361  90.3742  79.1258 0102638 235.1417 124.0048 13.44905625875043"}}, "geometry": {"type": "Point", "coordinates": [79.84437303594262, -61.7477501729349]}}, {"type": "Feature", "properties": {"norad_id": 18362, "name": "OSCAR 29", "group": "nnss", "lat": -44.139057597249334, "lon": 79.97077626373958, "alt_km": 1059.0460921963722, "timestamp": "2025-12-09T09:46:47.913997+00:00", "meta": {"OBJECT_NAME": "OSCAR 29", "OBJECT_ID": "1987-080B", "EPOCH": "2025-12-08T20:17:27.476160", "MEAN_MOTION": 13.44447461, "ECCENTRICITY": 0.01037656, "INCLINATION": 90.3754, "RA_OF_ASC_NODE": 79.5852, "ARG_OF_PERICENTER": 258.4854, "MEAN_ANOMALY": 217.7657, "EPHEMERIS_TYPE": 0, "CLASSIFICATION_TYPE": "U", "NORAD_CAT_ID": 18362, "ELEMENT_SET_NO": 999, "REV_AT_EPOCH": 87457, "BSTAR": 0.00028903872, "MEAN_MOTION_DOT": 1.81e-06, "MEAN_MOTION_DDOT": 0}, "tle": {"line1": "1 18362U 87080B   25342.84545690  .00000181  00000+0  28904-3 0  9995", "line2": "2 18362  90.3754  79.5852 0103765 258.4854 217.7657 13.44447461874578"}}, "geometry": {"type": "Point", "coordinates": [79.97077626373958, -44.139057597249334]}}, {"type": "Feature", "properties": {"norad_id": 19070, "name": "OSCAR 23", "group": "nnss", "lat": -68.02634185688088, "lon": 17.08675731145818, "alt_km": 1191.5263050628519, "timestamp": "2025-12-09T09:46:47.914009+00:00", "meta": {"OBJECT_NAME": "OSCAR 23", "OBJECT_ID": "1988-033A", "EPOCH": "2025-12-08T16:39:12.267936", "MEAN_MOTION": 13.27786374, "ECCENTRICITY": 0.01891831, "INCLINATION": 90.3215, "RA_OF_ASC_NODE": 16.2672, "ARG_OF_PERICENTER": 191.1838, "MEAN_ANOMALY": 289.6353, "EPHEMERIS_TYPE": 0, "CLASSIFICATION_TYPE": "U", "NORAD_CAT_ID": 19070, "ELEMENT_SET_NO": 999, "REV_AT_EPOCH": 82199, "BSTAR": 0.00021889934, "MEAN_MOTION_DOT": 1.17e-06, "MEAN_MOTION_DDOT": 0}, "tle": {"line1": "1 19070U 88033A   25342.69389199  .00000117  00000+0  21890-3 0  9990", "line2": "2 19070  90.3215  16.2672 0189183 191.1838 289.6353 13.27786374821997"}}, "geometry": {"type": "Point", "coordinates": [17.08675731145818, -68.02634185688088]}}, {"type": "Feature", "properties": {"norad_id": 19071, "name": "OSCAR 32", "group": "nnss", "lat": 36.704251268754454, "lon": 16.18099058656819, "alt_km": 1258.0797456453083, "timestamp": "2025-12-09T09:46:47.914020+00:00", "meta": {"OBJECT_NAME": "OSCAR 32", "OBJECT_ID": "1988-033B", "EPOCH": "2025-12-08T19:59:46.320864", "MEAN_MOTION": 13.27953304, "ECCENTRICITY": 0.01880369, "INCLINATION": 90.3221, "RA_OF_ASC_NODE": 16.4033, "ARG_OF_PERICENTER": 177.6421, "MEAN_ANOMALY": 356.5363, "EPHEMERIS_TYPE": 0, "CLASSIFICATION_TYPE": "U", "NORAD_CAT_ID": 19071, "ELEMENT_SET_NO": 999, "REV_AT_EPOCH": 82213, "BSTAR": 0.00020453437, "MEAN_MOTION_DOT": 1.1e-06, "MEAN_MOTION_DDOT": 0}, "tle": {"line1": "1 19071U 88033B   25342.83317501  .00000110  00000+0  20453-3 0  9992", "line2": "2 19071  90.3221  16.4033 0188036 177.6421 356.5363 13.27953304822132"}}, "geometry": {"type": "Point", "coordinates": [16.18099058656819, 36.704251268754454]}}, {"type": "Feature", "properties": {"norad_id": 19223, "name": "NOVA 2", "group": "nnss", "lat": -64.85594224433389, "lon": 78.24905222378841, "alt_km": 1181.0635580843027, "timestamp": "2025-12-09T09:46:47.914031+00:00", "meta": {"OBJECT_NAME": "NOVA 2", "OBJECT_ID": "1988-052A", "EPOCH": "2025-12-09T04:58:29.942400", "MEAN_MOTION": 13.22935312, "ECCENTRICITY": 0.0030883, "INCLINATION": 89.9871, "RA_OF_ASC_NODE": 78.2768, "ARG_OF_PERICENTER": 26.4937, "MEAN_ANOMALY": 36.1047, "EPHEMERIS_TYPE": 0, "CLASSIFICATION_TYPE": "U", "NORAD_CAT_ID": 19223, "ELEMENT_SET_NO": 999, "REV_AT_EPOCH": 80901, "BSTAR": 0.00020977, "MEAN_MOTION_DOT": 9.7e-07, "MEAN_MOTION_DDOT": 0}, "tle": {"line1": "1 19223U 88052A   25343.20729100  .00000097  00000+0  20977-3 0  9991", "line2": "2 19223  89.9871  78.2768 0030883  26.4937  36.1047 13.22935312809012"}}, "geometry": {"type": "Point", "coordinates": [78.24905222378841, -64.85594224433389]}}, {"type": "Feature", "properties": {"norad_id": 19419, "name": "OSCAR 25", "group": "nnss", "lat": 44.96056679491297, "lon": -159.7318433033515, "alt_km": 1131.1006135713596, "timestamp": "2025-12-09T09:46:47.914042+00:00", "meta": {"OBJECT_NAME": "OSCAR 25", "OBJECT_ID": "1988-074A", "EPOCH": "2025-12-08T21:27:14.131584", "MEAN_MOTION": 13.42622264, "ECCENTRICITY": 0.00943083, "INCLINATION": 90.0349, "RA_OF_ASC_NODE": 20.2315, "ARG_OF_PERICENTER": 257.0069, "MEAN_ANOMALY": 277.9723, "EPHEMERIS_TYPE": 0, "CLASSIFICATION_TYPE": "U", "NORAD_CAT_ID": 19419, "ELEMENT_SET_NO": 999, "REV_AT_EPOCH": 82588, "BSTAR": 0.00023301724, "MEAN_MOTION_DOT": 1.44e-06, "MEAN_MOTION_DDOT": 0}, "tle": {"line1": "1 19419U 88074A   25342.89391356  .00000144  00000+0  23302-3 0  9992", "line2": "2 19419  90.0349  20.2315 0094308 257.0069 277.9723 13.42622264825887"}}, "geometry": {"type": "Point", "coordinates": [-159.7318433033515, 44.96056679491297]}}, {"type": "Feature", "properties": {"norad_id": 19420, "name": "OSCAR 31", "group": "nnss", "lat": 20.83013805976631, "lon": 20.568789014133223, "alt_km": 1144.9023123252164, "timestamp": "2025-12-09T09:46:47.914053+00:00", "meta": {"OBJECT_NAME": "OSCAR 31", "OBJECT_ID": "1988-074B", "EPOCH": "2025-12-08T20:14:32.045280", "MEAN_MOTION": 13.42583793, "ECCENTRICITY": 0.00925808, "INCLINATION": 90.0367, "RA_OF_ASC_NODE": 20.5807, "ARG_OF_PERICENTER": 251.2576, "MEAN_ANOMALY": 284.1517, "EPHEMERIS_TYPE": 0, "CLASSIFICATION_TYPE": "U", "NORAD_CAT_ID": 19420, "ELEMENT_SET_NO": 999, "REV_AT_EPOCH": 82598, "BSTAR": 0.00022566756, "MEAN_MOTION_DOT": 1.39e-06, "MEAN_MOTION_DDOT": 0}, "tle": {"line1": "1 19420U 88074B   25342.84342645  .00000139  00000+0  22567-3 0  9992", "line2": "2 19420  90.0367  20.5807 0092580 251.2576 284.1517 13.42583793825982"}}, "geometry": {"type": "Point", "coordinates": [20.568789014133223, 20.83013805976631]}}]}